STARLINK-35315          
1 66543U 25265AD  26067.98905385  .00028713  00000+0  10484-2 0  9991
2 66543  43.0051 282.1148 0002391 271.0191  89.0386 15.27594453 17008
2025-313BD              
1 67299U 25313BD  26068.62968741  .00081010  00000+0  27634-2 0  9995
2 67299  97.3970 145.2850 0007287 333.4514  26.6352 15.30002360 10838
